[{"OBJECT_NAME":"STARLINK-5404","OBJECT_ID":"2022-175M","EPOCH":"2023-02-02T06:00:00.999648","MEAN_MOTION":15.08871468,"ECCENTRICITY":0.0001782,"INCLINATION":53.2143,"RA_OF_ASC_NODE":83.3816,"ARG_OF_PERICENTER":86.8018,"MEAN_ANOMALY":127.8995,"EPHEMERIS_TYPE":0,"CLASSIFICATION_TYPE":"U","NORAD_CAT_ID":54769,"ELEMENT_SET_NO":999,"REV_AT_EPOCH":695,"BSTAR":-0.0023545,"MEAN_MOTION_DOT":-0.00037597,"MEAN_MOTION_DDOT":0},{"OBJECT_NAME":"STARLINK-5448","OBJECT_ID":"2022-175N","EPOCH":"2023-02-02T02:22:47.313408","MEAN_MOTION":15.72993374,"ECCENTRICITY":0.0001721,"INCLINATION":53.2155,"RA_OF_ASC_NODE":77.0915,"ARG_OF_PERICENTER":103.7838,"MEAN_ANOMALY":256.3374,"EPHEMERIS_TYPE":0,"CLASSIFICATION_TYPE":"U","NORAD_CAT_ID":54770,"ELEMENT_SET_NO":999,"REV_AT_EPOCH":702,"BSTAR":-0.00077288,"MEAN_MOTION_DOT":-0.00106783,"MEAN_MOTION_DDOT":0},{"OBJECT_NAME":"STARLINK-5451","OBJECT_ID":"2022-175P","EPOCH":"2023-02-01T22:00:00.999936","MEAN_MOTION":15.36856293,"ECCENTRICITY":0.0001101,"INCLINATION":53.2153,"RA_OF_ASC_NODE":81.0232,"ARG_OF_PERICENTER":87.2371,"MEAN_ANOMALY":253.1688,"EPHEMERIS_TYPE":0,"CLASSIFICATION_TYPE":"U","NORAD_CAT_ID":54771,"ELEMENT_SET_NO":999,"REV_AT_EPOCH":695,"BSTAR":-0.026235,"MEAN_MOTION_DOT":-0.00882643,"MEAN_MOTION_DDOT":0},{"OBJECT_NAME":"STARLINK-5452","OBJECT_ID":"2022-175Q","EPOCH":"2023-02-02T02:22:39.232416","MEAN_MOTION":15.73093489,"ECCENTRICITY":0.000115,"INCLINATION":53.2167,"RA_OF_ASC_NODE":77.091,"ARG_OF_PERICENTER":96.2089,"MEAN_ANOMALY":263.9062,"EPHEMERIS_TYPE":0,"CLASSIFICATION_TYPE":"U","NORAD_CAT_ID":54772,"ELEMENT_SET_NO":999,"REV_AT_EPOCH":702,"BSTAR":-0.00017921,"MEAN_MOTION_DOT":-0.00025578,"MEAN_MOTION_DDOT":0},{"OBJECT_NAME":"STARLINK-5453","OBJECT_ID":"2022-175R","EPOCH":"2023-02-02T06:00:00.999648","MEAN_MOTION":15.08810266,"ECCENTRICITY":0.000228,"INCLINATION":53.2142,"RA_OF_ASC_NODE":83.2221,"ARG_OF_PERICENTER":91.4868,"MEAN_ANOMALY":203.5786,"EPHEMERIS_TYPE":0,"CLASSIFICATION_TYPE":"U","NORAD_CAT_ID":54773,"ELEMENT_SET_NO":999,"REV_AT_EPOCH":695,"BSTAR":-0.0014182,"MEAN_MOTION_DOT":-0.00022771,"MEAN_MOTION_DDOT":0},{"OBJECT_NAME":"STARLINK-5454","OBJECT_ID":"2022-175S","EPOCH":"2023-02-01T20:16:12.077472","MEAN_MOTION":15.7319338,"ECCENTRICITY":0.0001371,"INCLINATION":53.217,"RA_OF_ASC_NODE":78.3477,"ARG_OF_PERICENTER":77.2219,"MEAN_ANOMALY":282.8954,"EPHEMERIS_TYPE":0,"CLASSIFICATION_TYPE":"U","NORAD_CAT_ID":54774,"ELEMENT_SET_NO":999,"REV_AT_EPOCH":698,"BSTAR":5.8457e-8,"MEAN_MOTION_DOT":-6.12e-6,"MEAN_MOTION_DDOT":0},{"OBJECT_NAME":"STARLINK-5465","OBJECT_ID":"2022-175T","EPOCH":"2023-02-02T06:00:00.999648","MEAN_MOTION":15.08738685,"ECCENTRICITY":0.0001801,"INCLINATION":53.2129,"RA_OF_ASC_NODE":83.1844,"ARG_OF_PERICENTER":100.1437,"MEAN_ANOMALY":214.6378,"EPHEMERIS_TYPE":0,"CLASSIFICATION_TYPE":"U","NORAD_CAT_ID":54775,"ELEMENT_SET_NO":999,"REV_AT_EPOCH":695,"BSTAR":0.0084953,"MEAN_MOTION_DOT":0.00137179,"MEAN_MOTION_DDOT":0},{"OBJECT_NAME":"STARLINK-5470","OBJECT_ID":"2022-175U","EPOCH":"2023-02-02T06:00:00.999648","MEAN_MOTION":15.08895556,"ECCENTRICITY":0.000159,"INCLINATION":53.2119,"RA_OF_ASC_NODE":83.1162,"ARG_OF_PERICENTER":95.6145,"MEAN_ANOMALY":254.0535,"EPHEMERIS_TYPE":0,"CLASSIFICATION_TYPE":"U","NORAD_CAT_ID":54776,"ELEMENT_SET_NO":999,"REV_AT_EPOCH":695,"BSTAR":-0.0059017,"MEAN_MOTION_DOT":-0.00093143,"MEAN_MOTION_DDOT":0},{"OBJECT_NAME":"STARLINK-5468","OBJECT_ID":"2022-175V","EPOCH":"2023-02-02T06:00:00.999648","MEAN_MOTION":15.08858431,"ECCENTRICITY":0.000142,"INCLINATION":53.2135,"RA_OF_ASC_NODE":83.1441,"ARG_OF_PERICENTER":87.112,"MEAN_ANOMALY":247.7524,"EPHEMERIS_TYPE":0,"CLASSIFICATION_TYPE":"U","NORAD_CAT_ID":54777,"ELEMENT_SET_NO":999,"REV_AT_EPOCH":695,"BSTAR":-0.0024494,"MEAN_MOTION_DOT":-0.00039079,"MEAN_MOTION_DDOT":0},{"OBJECT_NAME":"STARLINK-5450","OBJECT_ID":"2022-175W","EPOCH":"2023-02-02T02:21:53.265888","MEAN_MOTION":15.73024364,"ECCENTRICITY":0.0002143,"INCLINATION":53.2165,"RA_OF_ASC_NODE":77.0876,"ARG_OF_PERICENTER":97.4896,"MEAN_ANOMALY":262.6367,"EPHEMERIS_TYPE":0,"CLASSIFICATION_TYPE":"U","NORAD_CAT_ID":54778,"ELEMENT_SET_NO":999,"REV_AT_EPOCH":702,"BSTAR":-0.00017165,"MEAN_MOTION_DOT":-0.00024462,"MEAN_MOTION_DDOT":0},{"OBJECT_NAME":"STARLINK-5447","OBJECT_ID":"2022-175X","EPOCH":"2023-02-02T02:21:52.739712","MEAN_MOTION":15.7300367,"ECCENTRICITY":0.000218,"INCLINATION":53.2147,"RA_OF_ASC_NODE":77.087,"ARG_OF_PERICENTER":95.6401,"MEAN_ANOMALY":264.4868,"EPHEMERIS_TYPE":0,"CLASSIFICATION_TYPE":"U","NORAD_CAT_ID":54779,"ELEMENT_SET_NO":999,"REV_AT_EPOCH":702,"BSTAR":-0.00071044,"MEAN_MOTION_DOT":-0.00098355,"MEAN_MOTION_DDOT":0},{"OBJECT_NAME":"STARLINK-5449","OBJECT_ID":"2022-175Y","EPOCH":"2023-02-02T02:19:47.882208","MEAN_MOTION":15.72988274,"ECCENTRICITY":0.0001502,"INCLINATION":53.2174,"RA_OF_ASC_NODE":77.0763,"ARG_OF_PERICENTER":113.7734,"MEAN_ANOMALY":246.3444,"EPHEMERIS_TYPE":0,"CLASSIFICATION_TYPE":"U","NORAD_CAT_ID":54780,"ELEMENT_SET_NO":999,"REV_AT_EPOCH":702,"BSTAR":-0.00019522,"MEAN_MOTION_DOT":-0.0002768,"MEAN_MOTION_DDOT":0},{"OBJECT_NAME":"STARLINK-5443","OBJECT_ID":"2022-175Z","EPOCH":"2023-02-02T03:53:05.987904","MEAN_MOTION":15.73130728,"ECCENTRICITY":6.58e-5,"INCLINATION":53.2161,"RA_OF_ASC_NODE":76.7716,"ARG_OF_PERICENTER":151.5234,"MEAN_ANOMALY":208.5823,"EPHEMERIS_TYPE":0,"CLASSIFICATION_TYPE":"U","NORAD_CAT_ID":54781,"ELEMENT_SET_NO":999,"REV_AT_EPOCH":703,"BSTAR":-6.6031e-5,"MEAN_MOTION_DOT":-9.846e-5,"MEAN_MOTION_DDOT":0},{"OBJECT_NAME":"STARLINK-5437","OBJECT_ID":"2022-175AA","EPOCH":"2023-02-02T03:09:57.446496","MEAN_MOTION":15.73223506,"ECCENTRICITY":0.0001096,"INCLINATION":53.2181,"RA_OF_ASC_NODE":76.5759,"ARG_OF_PERICENTER":87.2428,"MEAN_ANOMALY":272.8717,"EPHEMERIS_TYPE":0,"CLASSIFICATION_TYPE":"U","NORAD_CAT_ID":54782,"ELEMENT_SET_NO":999,"REV_AT_EPOCH":703,"BSTAR":2.9195e-5,"MEAN_MOTION_DOT":3.483e-5,"MEAN_MOTION_DDOT":0},{"OBJECT_NAME":"STARLINK-5439","OBJECT_ID":"2022-175AB","EPOCH":"2023-02-02T03:52:53.460768","MEAN_MOTION":15.73088411,"ECCENTRICITY":0.000131,"INCLINATION":53.2149,"RA_OF_ASC_NODE":76.7701,"ARG_OF_PERICENTER":111.4694,"MEAN_ANOMALY":248.6466,"EPHEMERIS_TYPE":0,"CLASSIFICATION_TYPE":"U","NORAD_CAT_ID":54783,"ELEMENT_SET_NO":999,"REV_AT_EPOCH":703,"BSTAR":-0.00029804,"MEAN_MOTION_DOT":-0.0004204,"MEAN_MOTION_DDOT":0},{"OBJECT_NAME":"STARLINK-5442","OBJECT_ID":"2022-175AC","EPOCH":"2023-02-02T06:00:00.999648","MEAN_MOTION":15.08869464,"ECCENTRICITY":0.0001654,"INCLINATION":53.2121,"RA_OF_ASC_NODE":83.1067,"ARG_OF_PERICENTER":95.9395,"MEAN_ANOMALY":258.9497,"EPHEMERIS_TYPE":0,"CLASSIFICATION_TYPE":"U","NORAD_CAT_ID":54784,"ELEMENT_SET_NO":999,"REV_AT_EPOCH":695,"BSTAR":-0.0034874,"MEAN_MOTION_DOT":-0.00055408,"MEAN_MOTION_DDOT":0},{"OBJECT_NAME":"STARLINK-5440","OBJECT_ID":"2022-175AD","EPOCH":"2023-02-02T03:08:30.592896","MEAN_MOTION":15.73215361,"ECCENTRICITY":0.0001959,"INCLINATION":53.2189,"RA_OF_ASC_NODE":76.5685,"ARG_OF_PERICENTER":108.9741,"MEAN_ANOMALY":251.1492,"EPHEMERIS_TYPE":0,"CLASSIFICATION_TYPE":"U","NORAD_CAT_ID":54785,"ELEMENT_SET_NO":999,"REV_AT_EPOCH":703,"BSTAR":7.1235e-5,"MEAN_MOTION_DOT":9.394e-5,"MEAN_MOTION_DDOT":0},{"OBJECT_NAME":"STARLINK-5438","OBJECT_ID":"2022-175AE","EPOCH":"2023-02-02T03:51:52.722432","MEAN_MOTION":15.73081642,"ECCENTRICITY":0.00014,"INCLINATION":53.2159,"RA_OF_ASC_NODE":76.7672,"ARG_OF_PERICENTER":99.845,"MEAN_ANOMALY":260.2728,"EPHEMERIS_TYPE":0,"CLASSIFICATION_TYPE":"U","NORAD_CAT_ID":54786,"ELEMENT_SET_NO":999,"REV_AT_EPOCH":703,"BSTAR":-0.0001908,"MEAN_MOTION_DOT":-0.00027175,"MEAN_MOTION_DDOT":0},{"OBJECT_NAME":"STARLINK-5441","OBJECT_ID":"2022-175AF","EPOCH":"2023-02-02T06:00:00.999648","MEAN_MOTION":15.09067687,"ECCENTRICITY":0.000115,"INCLINATION":53.2129,"RA_OF_ASC_NODE":83.067,"ARG_OF_PERICENTER":95.2107,"MEAN_ANOMALY":279.5894,"EPHEMERIS_TYPE":0,"CLASSIFICATION_TYPE":"U","NORAD_CAT_ID":54787,"ELEMENT_SET_NO":999,"REV_AT_EPOCH":695,"BSTAR":-0.022301,"MEAN_MOTION_DOT":-0.00340873,"MEAN_MOTION_DDOT":0},{"OBJECT_NAME":"STARLINK-5399","OBJECT_ID":"2022-175AG","EPOCH":"2023-02-02T03:51:35.510688","MEAN_MOTION":15.72930615,"ECCENTRICITY":0.000207,"INCLINATION":53.2147,"RA_OF_ASC_NODE":76.7637,"ARG_OF_PERICENTER":305.8105,"MEAN_ANOMALY":54.2722,"EPHEMERIS_TYPE":0,"CLASSIFICATION_TYPE":"U","NORAD_CAT_ID":54788,"ELEMENT_SET_NO":999,"REV_AT_EPOCH":703,"BSTAR":-0.00076334,"MEAN_MOTION_DOT":-0.00105217,"MEAN_MOTION_DDOT":0},{"OBJECT_NAME":"STARLINK-5446","OBJECT_ID":"2022-175AH","EPOCH":"2023-02-01T19:51:13.708800","MEAN_MOTION":15.73211307,"ECCENTRICITY":0.0003331,"INCLINATION":53.2169,"RA_OF_ASC_NODE":75.2585,"ARG_OF_PERICENTER":23.6604,"MEAN_ANOMALY":336.4569,"EPHEMERIS_TYPE":0,"CLASSIFICATION_TYPE":"U","NORAD_CAT_ID":54789,"ELEMENT_SET_NO":999,"REV_AT_EPOCH":701,"BSTAR":1.1625e-5,"MEAN_MOTION_DOT":1.009e-5,"MEAN_MOTION_DDOT":0},{"OBJECT_NAME":"STARLINK-5445","OBJECT_ID":"2022-175AJ","EPOCH":"2023-02-02T03:52:24.016512","MEAN_MOTION":15.72149771,"ECCENTRICITY":0.003146,"INCLINATION":53.2166,"RA_OF_ASC_NODE":76.7683,"ARG_OF_PERICENTER":120.1247,"MEAN_ANOMALY":240.2898,"EPHEMERIS_TYPE":0,"CLASSIFICATION_TYPE":"U","NORAD_CAT_ID":54790,"ELEMENT_SET_NO":999,"REV_AT_EPOCH":703,"BSTAR":-0.0010252,"MEAN_MOTION_DOT":-0.00140383,"MEAN_MOTION_DDOT":0},{"OBJECT_NAME":"STARLINK-5425","OBJECT_ID":"2022-175AK","EPOCH":"2023-02-01T22:00:00.999936","MEAN_MOTION":15.73070449,"ECCENTRICITY":9.77e-5,"INCLINATION":53.2157,"RA_OF_ASC_NODE":77.9758,"ARG_OF_PERICENTER":84.9112,"MEAN_ANOMALY":330.3482,"EPHEMERIS_TYPE":0,"CLASSIFICATION_TYPE":"U","NORAD_CAT_ID":54791,"ELEMENT_SET_NO":999,"REV_AT_EPOCH":699,"BSTAR":-0.0067765,"MEAN_MOTION_DOT":-0.00855273,"MEAN_MOTION_DDOT":0}]
